{
    "links": {
        "self": "http://www.neowsapp.com/rest/v1/neo/3648536?api_key=iIulBulltgU6a56xZRHN4H3l9WmuAYTsLGpBGhQ2"
    },
    "id": "3648536",
    "neo_reference_id": "3648536",
    "name": "(2013 SQ19)",
    "designation": "2013 SQ19",
    "nasa_jpl_url": "http://ssd.jpl.nasa.gov/sbdb.cgi?sstr=3648536",
    "absolute_magnitude_h": 25.6,
    "estimated_diameter": {
        "kilometers": {
            "estimated_diameter_min": 0.0201629919,
            "estimated_diameter_max": 0.0450858206
        },
        "meters": {
            "estimated_diameter_min": 20.1629919443,
            "estimated_diameter_max": 45.0858206172
        },
        "miles": {
            "estimated_diameter_min": 0.0125286985,
            "estimated_diameter_max": 0.0280150214
        },
        "feet": {
            "estimated_diameter_min": 66.1515504905,
            "estimated_diameter_max": 147.9193637137
        }
    },
    "is_potentially_hazardous_asteroid": false,
    "close_approach_data": [
        {
            "close_approach_date": "2013-09-21",
            "close_approach_date_full": "2013-Sep-21 05:22",
            "epoch_date_close_approach": 1379740920000,
            "relative_velocity": {
                "kilometers_per_second": "8.1620243798",
                "kilometers_per_hour": "29383.2877671627",
                "miles_per_hour": "18257.6323351018"
            },
            "miss_distance": {
                "astronomical": "0.0572379495",
                "lunar": "22.2655623555",
                "kilometers": "8562675.328367565",
                "miles": "5320599.729559797"
            },
            "orbiting_body": "Earth"
        }
    ],
    "orbital_data": {
        "orbit_id": "6",
        "orbit_determination_date": "2017-04-06 08:44:37",
        "first_observation_date": "2013-09-24",
        "last_observation_date": "2013-09-28",
        "data_arc_in_days": 4,
        "observations_used": 20,
        "orbit_uncertainty": "8",
        "minimum_orbit_intersection": ".0570349",
        "jupiter_tisserand_invariant": "3.340",
        "epoch_osculation": "2456560.5",
        "eccentricity": ".5457758302218841",
        "semi_major_axis": "2.332615425827763",
        "inclination": "8.81010981030453",
        "ascending_node_longitude": "181.6701315252778",
        "orbital_period": "1301.257189051421",
        "perihelion_distance": "1.059530305208242",
        "perihelion_argument": "172.9407771189909",
        "aphelion_distance": "3.605700546447284",
        "perihelion_time": "2456553.732333980647",
        "mean_anomaly": "1.872312243472112",
        "mean_motion": ".2766555320723566",
        "equinox": "J2000",
        "orbit_class": {
            "orbit_class_type": "AMO",
            "orbit_class_description": "Near-Earth asteroid orbits similar to that of 1221 Amor",
            "orbit_class_range": "1.017 AU < q (perihelion) < 1.3 AU"
        }
    },
    "is_sentry_object": false
}